NORAD_CAT_ID,OBJECT_NAME,OBJECT_TYPE,EPOCH,MEAN_MOTION,ECCENTRICITY,INCLINATION,RA_OF_ASC_NODE,ARG_OF_PERICENTER,MEAN_ANOMALY,BSTAR,MEAN_MOTION_DOT,MEAN_MOTION_DDOT,TLE_LINE0,TLE_LINE1,TLE_LINE2,SEMIMAJOR_AXIS,PERIOD,APOGEE,PERIGEE,DECAYED
52346.0,STARLINK-3812,PAYLOAD,2023-09-12 13:31:08,15.08851639,0.0001383,53.2181,320.3569,78.7583,281.3565,0.00010873,1.443e-05,0.0,0 STARLINK-3812,1 52346U 22045R   23255.56329267  .00001443  00000-0  10873-3 0  9994,2 52346  53.2181 320.3569 0001383  78.7583 281.3565 15.08851639 78532,6917.845,95.437,540.667,538.753,0.0
52346.0,STARLINK-3812,PAYLOAD,2023-09-12 23:03:27,15.0884557,0.0001439,53.218,318.5735,87.2052,272.9105,8.6574e-05,1.09e-05,0.0,0 STARLINK-3812,1 52346U 22045R   23255.96073632  .00001090  00000-0  86574-4 0  9990,2 52346  53.2180 318.5735 0001439  87.2052 272.9105 15.08845570 78592,6917.863,95.437,540.724,538.733,0.0
52346.0,STARLINK-3812,PAYLOAD,2023-09-13 11:46:32,15.08849451,0.0001385,53.2176,316.1937,82.9408,277.1742,0.0001925,2.778e-05,0.0,0 STARLINK-3812,1 52346U 22045R   23256.49065132  .00002778  00000-0  19250-3 0  9995,2 52346  53.2176 316.1937 0001385  82.9408 277.1742 15.08849451 78677,6917.852,95.437,540.675,538.758,0.0
52346.0,STARLINK-3812,PAYLOAD,2023-09-13 21:18:52,15.08832799,0.0001707,53.2172,314.4098,71.9202,288.1976,-4.3562e-05,-9.81e-06,0.0,0 STARLINK-3812,1 52346U 22045R   23256.88810351 -.00000981  00000-0 -43562-4 0  9999,2 52346  53.2172 314.4098 0001707  71.9202 288.1976 15.08832799 78735,6917.902,95.438,540.948,538.587,0.0
52346.0,STARLINK-3812,PAYLOAD,2023-09-13 22:54:15,15.08832577,0.0001649,53.2165,314.1122,74.3547,285.7627,-4.708e-05,-1.037e-05,0.0,0 STARLINK-3812,1 52346U 22045R   23256.95434338 -.00001037  00000-0 -47080-4 0  9996,2 52346  53.2165 314.1122 0001649  74.3547 285.7627 15.08832577 78747,6917.903,95.438,540.909,538.627,0.0
52346.0,STARLINK-3812,PAYLOAD,2023-09-14 10:01:58,15.08817043,0.0001575,53.2169,312.0318,69.4287,290.6874,-0.00024727,-4.219e-05,0.0,0 STARLINK-3812,1 52346U 22045R   23257.41803651 -.00004219  00000-0 -24727-3 0  9993,2 52346  53.2169 312.0318 0001575  69.4287 290.6874 15.08817043 78817,6917.951,95.439,540.905,538.726,0.0
52346.0,STARLINK-3812,PAYLOAD,2023-09-14 21:09:40,15.08825708,0.0001484,53.217,309.9502,73.621,286.4945,-4.4707e-05,-9.99e-06,0.0,0 STARLINK-3812,1 52346U 22045R   23257.88171726 -.00000999  00000-0 -44707-4 0  9997,2 52346  53.2170 309.9502 0001484  73.6210 286.4945 15.08825708 78887,6917.924,95.438,540.816,538.762,0.0
52346.0,STARLINK-3812,PAYLOAD,2023-09-15 03:31:12,15.08831224,0.0001473,53.2166,308.7599,73.6619,286.4535,9.2594e-05,1.186e-05,0.0,0 STARLINK-3812,1 52346U 22045R   23258.14667759  .00001186  00000-0  92594-4 0  9997,2 52346  53.2166 308.7599 0001473  73.6619 286.4535 15.08831224 78926,6917.907,95.438,540.791,538.753,0.0
52346.0,STARLINK-3812,PAYLOAD,2023-09-15 09:52:45,15.08836787,0.0001465,53.2164,307.5706,75.2974,284.818,0.00037311,5.655e-05,0.0,0 STARLINK-3812,1 52346U 22045R   23258.41163890  .00005655  00000-0  37311-3 0  9994,2 52346  53.2164 307.5706 0001465  75.2974 284.8180 15.08836787 78965,6917.89,95.438,540.769,538.742,0.0
52346.0,STARLINK-3812,PAYLOAD,2023-09-15 22:35:50,15.08845868,0.000151,53.216,305.1908,74.046,286.0698,0.00069117,0.00010731,0.0,0 STARLINK-3812,1 52346U 22045R   23258.94156006  .00010731  00000-0  69117-3 0  9993,2 52346  53.2160 305.1908 0001510  74.0460 286.0698 15.08845868 79045,6917.862,95.437,540.772,538.683,0.0
52346.0,STARLINK-3812,PAYLOAD,2023-09-16 09:43:32,15.08870765,0.0001625,53.2162,303.1101,66.5926,293.5237,0.00098592,0.00015451,0.0,0 STARLINK-3812,1 52346U 22045R   23259.40523230  .00015451  00000-0  98592-3 0  9995,2 52346  53.2162 303.1101 0001625  66.5926 293.5237 15.08870765 79114,6917.786,95.436,540.775,538.527,0.0
52346.0,STARLINK-3812,PAYLOAD,2023-09-17 00:01:59,15.08862366,0.0001535,53.2168,300.4336,91.9438,268.173,0.00044356,6.783e-05,0.0,0 STARLINK-3812,1 52346U 22045R   23260.00138623  .00006783  00000-0  44356-3 0  9998,2 52346  53.2168 300.4336 0001535  91.9438 268.1730 15.08862366 79204,6917.812,95.436,540.739,538.615,0.0
52346.0,STARLINK-3812,PAYLOAD,2023-09-17 09:34:18,15.08858558,0.0001582,53.216,298.6488,79.704,280.4131,0.00032839,4.945e-05,0.0,0 STARLINK-3812,1 52346U 22045R   23260.39882579  .00004945  00000-0  32839-3 0  9997,2 52346  53.2160 298.6488 0001582  79.7040 280.4131 15.08858558 79263,6917.824,95.436,540.783,538.594,0.0
52346.0,STARLINK-3812,PAYLOAD,2023-09-18 03:03:32,15.08848206,0.0001522,53.2158,295.3768,85.3639,274.7527,2.7268e-05,1.46e-06,0.0,0 STARLINK-3812,1 52346U 22045R   23261.12746520  .00000146  00000-0  27268-4 0  9994,2 52346  53.2158 295.3768 0001522  85.3639 274.7527 15.08848206 79372,6917.855,95.437,540.773,538.667,0.0
52346.0,STARLINK-3812,PAYLOAD,2023-09-18 07:49:42,15.08848851,0.0001601,53.216,294.4854,91.5328,268.5848,6.307e-05,7.16e-06,0.0,0 STARLINK-3812,1 52346U 22045R   23261.32618342  .00000716  00000-0  63070-4 0  9990,2 52346  53.2160 294.4854 0001601  91.5328 268.5848 15.08848851 79400,6917.853,95.437,540.826,538.611,0.0
52346.0,STARLINK-3812,PAYLOAD,2023-09-18 18:57:24,15.08847374,0.0001586,53.2158,292.4042,88.0462,272.0712,0.00011788,1.589e-05,0.0,0 STARLINK-3812,1 52346U 22045R   23261.78986337  .00001589  00000-0  11788-3 0  9999,2 52346  53.2158 292.4042 0001586  88.0462 272.0712 15.08847374 79472,6917.858,95.437,540.82,538.626,0.0
52346.0,STARLINK-3812,PAYLOAD,2023-09-19 07:40:29,15.08847111,0.0001603,53.2157,290.0247,85.9144,274.2031,0.0001677,2.382e-05,0.0,0 STARLINK-3812,1 52346U 22045R   23262.31978223  .00002382  00000-0  16770-3 0  9992,2 52346  53.2157 290.0247 0001603  85.9144 274.2031 15.08847111 79551,6917.859,95.437,540.833,538.615,0.0
52346.0,STARLINK-3812,PAYLOAD,2023-09-19 23:34:21,15.08827505,0.0001557,53.2158,287.0513,92.7512,267.3659,-0.0002258,-3.879e-05,0.0,0 STARLINK-3812,1 52346U 22045R   23262.98218818 -.00003879  00000-0 -22580-3 0  9992,2 52346  53.2158 287.0513 0001557  92.7512 267.3659 15.08827505 79652,6917.919,95.438,540.861,538.706,0.0
52346.0,STARLINK-3812,PAYLOAD,2023-09-20 10:42:03,15.08833813,0.0001589,53.2159,284.9703,95.8357,264.2816,-4.4636e-05,-9.98e-06,0.0,0 STARLINK-3812,1 52346U 22045R   23263.44586865 -.00000998  00000-0 -44636-4 0  9990,2 52346  53.2159 284.9703 0001589  95.8357 264.2816 15.08833813 79724,6917.899,95.438,540.864,538.665,0.0
52346.0,STARLINK-3812,PAYLOAD,2023-09-20 18:38:58,15.08832655,0.0001605,53.2161,283.4836,95.4157,264.7018,8.8717e-07,-2.74e-06,0.0,0 STARLINK-3812,1 52346U 22045R   23263.77707158 -.00000274  00000-0  88717-6 0  9992,2 52346  53.2161 283.4836 0001605  95.4157 264.7018 15.08832655 79778,6917.903,95.438,540.878,538.658,0.0
52346.0,STARLINK-3812,PAYLOAD,2023-09-21 08:57:27,15.08850524,0.0001586,53.2157,280.8056,97.5453,262.572,0.00092275,0.00014432,0.0,0 STARLINK-3812,1 52346U 22045R   23264.37323170  .00014432  00000-0  92275-3 0  9998,2 52346  53.2157 280.8056 0001586  97.5453 262.5720 15.08850524 79869,6917.848,95.437,540.81,538.616,0.0
52346.0,STARLINK-3812,PAYLOAD,2023-09-22 00:51:18,15.08842068,0.0001599,53.2155,277.8322,96.5538,263.5636,0.00028088,4.185e-05,0.0,0 STARLINK-3812,1 52346U 22045R   23265.03563352  .00004185  00000-0  28088-3 0  9995,2 52346  53.2155 277.8322 0001599  96.5538 263.5636 15.08842068 79968,6917.874,95.437,540.845,538.633,0.0
52346.0,STARLINK-3812,PAYLOAD,2023-09-22 07:12:51,15.08844296,0.0001591,53.2156,276.6428,96.3217,263.7957,0.00027994,4.171e-05,0.0,0 STARLINK-3812,1 52346U 22045R   23265.30059270  .00004171  00000-0  27994-3 0  9994,2 52346  53.2156 276.6428 0001591  96.3217 263.7957 15.08844296 80007,6917.867,95.437,540.833,538.632,0.0
52346.0,STARLINK-3812,PAYLOAD,2023-09-22 18:20:32,15.08850129,0.0001599,53.2158,274.5611,96.4185,263.699,0.00035582,5.381e-05,0.0,0 STARLINK-3812,1 52346U 22045R   23265.76427078  .00005381  00000-0  35582-3 0  9995,2 52346  53.2158 274.5611 0001599  96.4185 263.6990 15.08850129 80078,6917.849,95.437,540.821,538.608,0.0
52346.0,STARLINK-3812,PAYLOAD,2023-09-23 10:14:24,15.08847769,0.000157,53.2159,271.5875,97.6575,262.4596,0.00014994,2.1e-05,0.0,0 STARLINK-3812,1 52346U 22045R   23266.42667109  .00002100  00000-0  14994-3 0  9990,2 52346  53.2159 271.5875 0001570  97.6575 262.4596 15.08847769 80179,6917.857,95.437,540.808,538.636,0.0
52346.0,STARLINK-3812,PAYLOAD,2023-09-24 03:43:39,15.08840949,0.0001648,53.216,268.3159,99.6372,260.4806,0.00011938,1.612e-05,0.0,0 STARLINK-3812,1 52346U 22045R   23267.15531444  .00001612  00000-0  11938-3 0  9995,2 52346  53.2160 268.3159 0001648  99.6372 260.4806 15.08840949 80280,6917.877,95.437,540.883,538.602,0.0
52346.0,STARLINK-3812,PAYLOAD,2023-09-24 06:54:25,15.08842295,0.0001636,53.2163,267.7211,102.1744,257.9431,0.00012412,1.688e-05,0.0,0 STARLINK-3812,1 52346U 22045R   23267.28779362  .00001688  00000-0  12412-3 0  9993,2 52346  53.2163 267.7211 0001636 102.1744 257.9431 15.08842295 80309,6917.873,95.437,540.87,538.607,0.0
52346.0,STARLINK-3812,PAYLOAD,2023-09-25 06:45:12,15.08849766,0.0001709,53.2171,263.264,106.3099,253.8081,0.00018221,2.614e-05,0.0,0 STARLINK-3812,1 52346U 22045R   23268.28138982  .00002614  00000-0  18221-3 0  9995,2 52346  53.2171 263.2640 0001709 106.3099 253.8081 15.08849766 80457,6917.851,95.437,540.898,538.533,0.0
52346.0,STARLINK-3812,PAYLOAD,2023-09-26 06:35:59,15.0884606,0.0001714,53.2172,258.8043,103.7476,256.3707,0.00010642,1.406e-05,0.0,0 STARLINK-3812,1 52346U 22045R   23269.27498887  .00001406  00000-0  10642-3 0  9995,2 52346  53.2172 258.8043 0001714 103.7476 256.3707 15.08846060 80605,6917.862,95.437,540.913,538.541,0.0
52346.0,STARLINK-3812,PAYLOAD,2023-09-27 04:51:23,15.08831856,0.0001709,53.2178,254.6413,105.9828,254.1353,-0.00012014,-2.199e-05,0.0,0 STARLINK-3812,1 52346U 22045R   23270.20235784 -.00002199  00000-0 -12014-3 0  9992,2 52346  53.2178 254.6413 0001709 105.9828 254.1353 15.08831856 80740,6917.905,95.438,540.953,538.588,0.0
